{"type": "FeatureCollection", "features": [ {"type": "Feature", "properties": {"norad_id": 42741, "name": "EUTELSAT 172B", "group": "eutelsat", "lat": 0.007957623433230438, "lon": 77.96673894957483, "alt_km": 35785.75780976289, "timestamp": "2025-12-23T11:34:47.852977+00:00", "meta": {"OBJECT_NAME": "EUTELSAT 172B", "OBJECT_ID": "2017-029B", "EPOCH": "2025-12-22T22:32:23.062848", "MEAN_MOTION": 1.0027045, "ECCENTRICITY": 2.19e-05, "INCLINATION": 0.0252, "RA_OF_ASC_NODE": 115.6148, "ARG_OF_PERICENTER": 5.7536, "MEAN_ANOMALY": 120.4703, "EPHEMERIS_TYPE": 0, "CLASSIFICATION_TYPE": "U", "NORAD_CAT_ID": 42741, "ELEMENT_SET_NO": 999, "REV_AT_EPOCH": 3196, "BSTAR": 0, "MEAN_MOTION_DOT": 1.6e-07, "MEAN_MOTION_DDOT": 0}, "tle": {"line1": "1 42741U 17029B   25356.93915582  .00000016  00000+0  00000+0 0  9995", "line2": "2 42741   0.0252 115.6148 0000219   5.7536 120.4703  1.00270450 31968"}}, "geometry": {"type": "Point", "coordinates": [77.96673894957483, 0.007957623433230438]}}, {"type": "Feature", "properties": {"norad_id": 44334, "name": "EUTELSAT 7C", "group": "eutelsat", "lat": 0.04739774668435626, "lon": -87.0481112888087, "alt_km": 35773.76180886831, "timestamp": "2025-12-23T11:34:47.852988+00:00", "meta": {"OBJECT_NAME": "EUTELSAT 7C", "OBJECT_ID": "2019-034B", "EPOCH": "2025-12-23T02:53:37.732704", "MEAN_MOTION": 1.00270531, "ECCENTRICITY": 0.0003118, "INCLINATION": 0.0726, "RA_OF_ASC_NODE": 179.3979, "ARG_OF_PERICENTER": 76.6537, "MEAN_ANOMALY": 246.2492, "EPHEMERIS_TYPE": 0, "CLASSIFICATION_TYPE": "U", "NORAD_CAT_ID": 44334, "ELEMENT_SET_NO": 999, "REV_AT_EPOCH": 507, "BSTAR": 0, "MEAN_MOTION_DOT": 6.9e-07, "MEAN_MOTION_DDOT": 0}, "tle": {"line1": "1 44334U 19034B   25357.12057561  .00000069  00000+0  00000+0 0  9997", "line2": "2 44334   0.0726 179.3979 0003118  76.6537 246.2492  1.00270531  5077"}}, "geometry": {"type": "Point", "coordinates": [-87.0481112888087, 0.04739774668435626]}}, {"type": "Feature", "properties": {"norad_id": 44624, "name": "EUTELSAT 5 WEST B", "group": "eutelsat", "lat": -0.08528927410149728, "lon": -99.03923057339087, "alt_km": 35773.434542084055, "timestamp": "2025-12-23T11:34:47.852998+00:00", "meta": {"OBJECT_NAME": "EUTELSAT 5 WEST B", "OBJECT_ID": "2019-067A", "EPOCH": "2025-12-23T02:50:15.554976", "MEAN_MOTION": 1.00271356, "ECCENTRICITY": 0.0003064, "INCLINATION": 0.0647, "RA_OF_ASC_NODE": 339.9131, "ARG_OF_PERICENTER": 291.3221, "MEAN_ANOMALY": 218.2457, "EPHEMERIS_TYPE": 0, "CLASSIFICATION_TYPE": "U", "NORAD_CAT_ID": 44624, "ELEMENT_SET_NO": 999, "REV_AT_EPOCH": 2267, "BSTAR": 0, "MEAN_MOTION_DOT": -2.1e-07, "MEAN_MOTION_DDOT": 0}, "tle": {"line1": "1 44624U 19067A   25357.11823559 -.00000021  00000+0  00000+0 0  9991", "line2": "2 44624   0.0647 339.9131 0003064 291.3221 218.2457  1.00271356 22672"}}, "geometry": {"type": "Point", "coordinates": [-99.03923057339087, -0.08528927410149728]}}, {"type": "Feature", "properties": {"norad_id": 45027, "name": "EUTELSAT KONNECT", "group": "eutelsat", "lat": -0.020959889338638453, "lon": -86.83480023449148, "alt_km": 35780.48612451805, "timestamp": "2025-12-23T11:34:47.853009+00:00", "meta": {"OBJECT_NAME": "EUTELSAT KONNECT", "OBJECT_ID": "2020-005B", "EPOCH": "2025-12-22T14:54:44.385984", "MEAN_MOTION": 1.00271247, "ECCENTRICITY": 0.00013494, "INCLINATION": 0.0714, "RA_OF_ASC_NODE": 94.3931, "ARG_OF_PERICENTER": 184.6433, "MEAN_ANOMALY": 43.2748, "EPHEMERIS_TYPE": 0, "CLASSIFICATION_TYPE": "U", "NORAD_CAT_ID": 45027, "ELEMENT_SET_NO": 999, "REV_AT_EPOCH": 2256, "BSTAR": 0, "MEAN_MOTION_DOT": 7.1e-07, "MEAN_MOTION_DDOT": 0}, "tle": {"line1": "1 45027U 20005B   25356.62134706  .00000071  00000+0  00000+0 0  9991", "line2": "2 45027   0.0714  94.3931 0001349 184.6433  43.2748  1.00271247 22564"}}, "geometry": {"type": "Point", "coordinates": [-86.83480023449148, -0.020959889338638453]}}, {"type": "Feature", "properties": {"norad_id": 49056, "name": "EUTELSAT QUANTUM", "group": "eutelsat", "lat": -0.027640616183789633, "lon": -46.306652555185245, "alt_km": 35773.76206789224, "timestamp": "2025-12-23T11:34:47.853019+00:00", "meta": {"OBJECT_NAME": "EUTELSAT QUANTUM", "OBJECT_ID": "2021-069B", "EPOCH": "2025-12-23T03:05:14.121888", "MEAN_MOTION": 1.00271476, "ECCENTRICITY": 0.0003451, "INCLINATION": 0.0103, "RA_OF_ASC_NODE": 5.2607, "ARG_OF_PERICENTER": 276.2838, "MEAN_ANOMALY": 264.3953, "EPHEMERIS_TYPE": 0, "CLASSIFICATION_TYPE": "U", "NORAD_CAT_ID": 49056, "ELEMENT_SET_NO": 999, "REV_AT_EPOCH": 1616, "BSTAR": 0, "MEAN_MOTION_DOT": 1.47e-06, "MEAN_MOTION_DDOT": 0}, "tle": {"line1": "1 49056U 21069B   25357.12863567  .00000147  00000+0  00000+0 0  9992", "line2": "2 49056   0.0103   5.2607 0003451 276.2838 264.3953  1.00271476 16163"}}, "geometry": {"type": "Point", "coordinates": [-46.306652555185245, -0.027640616183789633]}}, {"type": "Feature", "properties": {"norad_id": 53765, "name": "EUTELSAT KONNECT VHTS", "group": "eutelsat", "lat": -0.012132279750566598, "lon": -91.30215576542494, "alt_km": 35777.76358647056, "timestamp": "2025-12-23T11:34:47.853030+00:00", "meta": {"OBJECT_NAME": "EUTELSAT KONNECT VHTS", "OBJECT_ID": "2022-110A", "EPOCH": "2025-12-22T14:53:22.017408", "MEAN_MOTION": 1.00268229, "ECCENTRICITY": 0.00023717, "INCLINATION": 0.0613, "RA_OF_ASC_NODE": 98.5283, "ARG_OF_PERICENTER": 147.5122, "MEAN_ANOMALY": 71.4567, "EPHEMERIS_TYPE": 0, "CLASSIFICATION_TYPE": "U", "NORAD_CAT_ID": 53765, "ELEMENT_SET_NO": 999, "REV_AT_EPOCH": 505, "BSTAR": 0, "MEAN_MOTION_DOT": 3.8e-07, "MEAN_MOTION_DDOT": 0}, "tle": {"line1": "1 53765U 22110A   25356.62039372  .00000038  00000+0  00000+0 0  9994", "line2": "2 53765   0.0613  98.5283 0002371 147.5122  71.4567  1.00268229  5058"}}, "geometry": {"type": "Point", "coordinates": [-91.30215576542494, -0.012132279750566598]}}, {"type": "Feature", "properties": {"norad_id": 54048, "name": "EUTELSAT HOTBIRD 13F", "group": "eutelsat", "lat": -0.03114025756797189, "lon": -81.06141020787143, "alt_km": 35785.10036045153, "timestamp": "2025-12-23T11:34:47.853041+00:00", "meta": {"OBJECT_NAME": "EUTELSAT HOTBIRD 13F", "OBJECT_ID": "2022-134A", "EPOCH": "2025-12-21T21:49:07.084128", "MEAN_MOTION": 1.00271763, "ECCENTRICITY": 0.00022808, "INCLINATION": 0.0525, "RA_OF_ASC_NODE": 292.4073, "ARG_OF_PERICENTER": 71.4737, "MEAN_ANOMALY": 67.1177, "EPHEMERIS_TYPE": 0, "CLASSIFICATION_TYPE": "U", "NORAD_CAT_ID": 54048, "ELEMENT_SET_NO": 999, "REV_AT_EPOCH": 1160, "BSTAR": 0, "MEAN_MOTION_DOT": 1.09e-06, "MEAN_MOTION_DDOT": 0}, "tle": {"line1": "1 54048U 22134A   25355.90910977  .00000109  00000+0  00000+0 0  9993", "line2": "2 54048   0.0525 292.4073 0002280  71.4737  67.1177  1.00271763 11607"}}, "geometry": {"type": "Point", "coordinates": [-81.06141020787143, -0.03114025756797189]}}, {"type": "Feature", "properties": {"norad_id": 54225, "name": "EUTELSAT HOTBIRD 13G", "group": "eutelsat", "lat": 0.0010795561011971524, "lon": -80.96141836292574, "alt_km": 35780.43883198955, "timestamp": "2025-12-23T11:34:47.853051+00:00", "meta": {"OBJECT_NAME": "EUTELSAT HOTBIRD 13G", "OBJECT_ID": "2022-146A", "EPOCH": "2025-12-22T04:02:38.705856", "MEAN_MOTION": 1.00287196, "ECCENTRICITY": 6.245e-05, "INCLINATION": 0.0535, "RA_OF_ASC_NODE": 228.1743, "ARG_OF_PERICENTER": 347.6873, "MEAN_ANOMALY": 308.7697, "EPHEMERIS_TYPE": 0, "CLASSIFICATION_TYPE": "U", "NORAD_CAT_ID": 54225, "ELEMENT_SET_NO": 999, "REV_AT_EPOCH": 569, "BSTAR": 0, "MEAN_MOTION_DOT": 1.11e-06, "MEAN_MOTION_DDOT": 0}, "tle": {"line1": "1 54225U 22146A   25356.16850354  .00000111  00000+0  00000+0 0  9997", "line2": "2 54225   0.0535 228.1743 0000624 347.6873 308.7697  1.00287196  5694"}}, "geometry": {"type": "Point", "coordinates": [-80.96141836292574, 0.0010795561011971524]}}, {"type": "Feature", "properties": {"norad_id": 54259, "name": "EUTELSAT 10B", "group": "eutelsat", "lat": -0.022133517767612926, "lon": -84.00956304328007, "alt_km": 35788.77509628593, "timestamp": "2025-12-23T11:34:47.853062+00:00", "meta": {"OBJECT_NAME": "EUTELSAT 10B", "OBJECT_ID": "2022-157A", "EPOCH": "2025-12-23T01:11:43.653120", "MEAN_MOTION": 1.00272927, "ECCENTRICITY": 7.19e-05, "INCLINATION": 0.061, "RA_OF_ASC_NODE": 96.1012, "ARG_OF_PERICENTER": 1.3181, "MEAN_ANOMALY": 22.3816, "EPHEMERIS_TYPE": 0, "CLASSIFICATION_TYPE": "U", "NORAD_CAT_ID": 54259, "ELEMENT_SET_NO": 999, "REV_AT_EPOCH": 1126, "BSTAR": 0, "MEAN_MOTION_DOT": 9e-07, "MEAN_MOTION_DDOT": 0}, "tle": {"line1": "1 54259U 22157A   25357.04981080  .00000090  00000+0  00000+0 0  9991", "line2": "2 54259   0.0610  96.1012 0000719   1.3181  22.3816  1.00272927 11266"}}, "geometry": {"type": "Point", "coordinates": [-84.00956304328007, -0.022133517767612926]}}, {"type": "Feature", "properties": {"norad_id": 59346, "name": "EUTELSAT 36D", "group": "eutelsat", "lat": -0.04503434410090064, "lon": -58.17560605614335, "alt_km": 35785.3135882459, "timestamp": "2025-12-23T11:34:47.853073+00:00", "meta": {"OBJECT_NAME": "EUTELSAT 36D", "OBJECT_ID": "2024-059A", "EPOCH": "2025-12-22T21:53:41.767872", "MEAN_MOTION": 1.00272062, "ECCENTRICITY": 3.385e-05, "INCLINATION": 0.0224, "RA_OF_ASC_NODE": 32.3182, "ARG_OF_PERICENTER": 333.4824, "MEAN_ANOMALY": 90.1956, "EPHEMERIS_TYPE": 0, "CLASSIFICATION_TYPE": "U", "NORAD_CAT_ID": 59346, "ELEMENT_SET_NO": 999, "REV_AT_EPOCH": 638, "BSTAR": 0, "MEAN_MOTION_DOT": 0, "MEAN_MOTION_DDOT": 0}, "tle": {"line1": "1 59346U 24059A   25356.91228898  .00000000  00000+0  00000+0 0  9993", "line2": "2 59346   0.0224  32.3182 0000338 333.4824  90.1956  1.00272062  6384"}}, "geometry": {"type": "Point", "coordinates": [-58.17560605614335, -0.04503434410090064]}}]}